NORAD_CAT_ID,OBJECT_NAME,OBJECT_TYPE,EPOCH,MEAN_MOTION,ECCENTRICITY,INCLINATION,RA_OF_ASC_NODE,ARG_OF_PERICENTER,MEAN_ANOMALY,BSTAR,MEAN_MOTION_DOT,MEAN_MOTION_DDOT,TLE_LINE0,TLE_LINE1,TLE_LINE2,SEMIMAJOR_AXIS,PERIOD,APOGEE,PERIGEE,DECAYED
53828.0,STARLINK-4760,PAYLOAD,2024-05-05 04:00:08,15.08837917,0.0001335,53.217,87.5875,90.067,270.0475,7.2352e-05,8.64e-06,0.0,0 STARLINK-4760,1 53828U 22114L   24126.16677074  .00000864  00000-0  72352-4 0  9990,2 53828  53.2170  87.5875 0001335  90.0670 270.0475 15.08837917 90610,6917.887,95.438,540.675,538.828,0.0
53828.0,STARLINK-4760,PAYLOAD,2024-05-05 07:10:55,15.08844573,0.0001329,53.2175,86.9926,89.3695,270.7449,1.7466e-05,-1e-07,0.0,0 STARLINK-4760,1 53828U 22114L   24126.29924896 -.00000010  00000-0  17466-4 0  9990,2 53828  53.2175  86.9926 0001329  89.3695 270.7449 15.08844573 91172,6917.866,95.437,540.651,538.812,0.0
53828.0,STARLINK-4760,PAYLOAD,2024-05-06 07:01:41,15.08844262,0.0001346,53.2182,82.5316,88.8607,271.254,0.00019876,2.877e-05,0.0,0 STARLINK-4760,1 53828U 22114L   24127.29284385  .00002877  00000-0  19876-3 0  9991,2 53828  53.2182  82.5316 0001346  88.8607 271.2540 15.08844262 90780,6917.867,95.437,540.664,538.801,0.0
53828.0,STARLINK-4760,PAYLOAD,2024-05-07 06:52:28,15.08846495,0.0001338,53.2181,78.0709,88.2074,271.9072,4.1091e-05,3.66e-06,0.0,0 STARLINK-4760,1 53828U 22114L   24128.28644511  .00000366  00000-0  41091-4 0  9998,2 53828  53.2181  78.0709 0001338  88.2074 271.9072 15.08846495 90932,6917.861,95.437,540.651,538.8,0.0
53828.0,STARLINK-4760,PAYLOAD,2024-05-07 13:14:00,15.08854334,0.0001399,53.2192,76.8829,89.4563,270.6589,7.9435e-05,9.77e-06,0.0,0 STARLINK-4760,1 53828U 22114L   24128.55139686  .00000977  00000-0  79435-4 0  9991,2 53828  53.2192  76.8829 0001399  89.4563 270.6589 15.08854334 91511,6917.837,95.437,540.669,538.734,0.0
53828.0,STARLINK-4760,PAYLOAD,2024-05-08 03:32:30,15.08832864,0.000124,53.2178,74.2072,90.1265,269.9869,-0.00013148,-2.379e-05,0.0,0 STARLINK-4760,1 53828U 22114L   24129.14757687 -.00002379  00000-0 -13148-3 0  9992,2 53828  53.2178  74.2072 0001240  90.1265 269.9869 15.08832864 91066,6917.902,95.438,540.625,538.909,0.0
53828.0,STARLINK-4760,PAYLOAD,2024-05-08 13:04:48,15.08844434,0.0001469,53.2199,72.4237,93.6528,266.4632,-3.4126e-05,-8.31e-06,0.0,0 STARLINK-4760,1 53828U 22114L   24129.54500702 -.00000831  00000-0 -34126-4 0  9991,2 53828  53.2199  72.4237 0001469  93.6528 266.4632 15.08844434 91128,6917.867,95.437,540.748,538.716,0.0
53828.0,STARLINK-4760,PAYLOAD,2024-05-09 04:58:40,15.08833548,0.0001716,53.2182,69.4483,84.8574,275.2614,-2.3663e-05,-6.65e-06,0.0,0 STARLINK-4760,1 53828U 22114L   24130.20741711 -.00000665  00000-0 -23663-4 0  9992,2 53828  53.2182  69.4483 0001716  84.8574 275.2614 15.08833548 91220,6917.9,95.438,540.952,538.578,0.0
53828.0,STARLINK-4760,PAYLOAD,2024-05-09 12:55:35,15.08851026,0.0001482,53.2179,67.964,81.074,279.042,7.0105e-05,8.28e-06,0.0,0 STARLINK-4760,1 53828U 22114L   24130.53860256  .00000828  00000-0  70105-4 0  9996,2 53828  53.2179  67.9640 0001482  81.0740 279.0420 15.08851026 91811,6917.847,95.437,540.737,538.686,0.0
53828.0,STARLINK-4760,PAYLOAD,2024-05-10 01:38:41,15.0883531,0.0001422,53.2191,65.5815,79.5716,280.5436,4.9611e-05,5.02e-06,0.0,0 STARLINK-4760,1 53828U 22114L   24131.06853650  .00000502  00000-0  49611-4 0  9992,2 53828  53.2191  65.5815 0001422  79.5716 280.5436 15.08835310 91353,6917.895,95.438,540.743,538.776,0.0
53828.0,STARLINK-4760,PAYLOAD,2024-05-11 01:29:27,15.08858095,0.0001708,53.2182,61.1226,89.4519,270.6669,0.00022008,3.218e-05,0.0,0 STARLINK-4760,1 53828U 22114L   24132.06212519  .00003218  00000-0  22008-3 0  9993,2 53828  53.2182  61.1226 0001708  89.4519 270.6669 15.08858095 91509,6917.825,95.436,540.872,538.509,0.0
53828.0,STARLINK-4760,PAYLOAD,2024-05-11 12:37:02,15.08928395,0.0001483,53.2198,59.0431,64.4375,295.677,0.00069406,0.00010802,0.0,0 STARLINK-4760,1 53828U 22114L   24132.52572863  .00010802  00000-0  69406-3 0  9995,2 53828  53.2198  59.0431 0001483  64.4375 295.6770 15.08928395 91571,6917.61,95.432,540.501,538.449,0.0
53828.0,STARLINK-4760,PAYLOAD,2024-05-12 04:31:01,15.08803513,0.0001344,53.2176,56.0667,110.633,249.4807,-0.00068888,-0.00011224,0.0,0 STARLINK-4760,1 53828U 22114L   24133.18821440 -.00011224  00000-0 -68888-3 0  9990,2 53828  53.2176  56.0667 0001344 110.6330 249.4807 15.08803513 91679,6917.992,95.44,540.787,538.927,0.0
53828.0,STARLINK-4760,PAYLOAD,2024-05-12 12:27:58,15.08798973,0.0001256,53.2171,54.5826,94.2255,265.888,-0.00060528,-9.897e-05,0.0,0 STARLINK-4760,1 53828U 22114L   24133.51942700 -.00009897  00000-0 -60528-3 0  9996,2 53828  53.2171  54.5826 0001256  94.2255 265.8880 15.08798973 92261,6918.006,95.44,540.74,539.002,0.0
53828.0,STARLINK-4760,PAYLOAD,2024-05-12 22:00:18,15.08795143,0.0001342,53.2166,52.7997,94.9843,265.1302,-0.00084763,-0.00013736,0.0,0 STARLINK-4760,1 53828U 22114L   24133.91688149 -.00013736  00000-0 -84763-3 0  9998,2 53828  53.2166  52.7997 0001342  94.9843 265.1302 15.08795143 92325,6918.018,95.44,540.811,538.954,0.0
53828.0,STARLINK-4760,PAYLOAD,2024-05-13 04:21:49,15.08839091,0.0001381,53.2186,51.6078,96.3055,263.8095,-0.00011291,-2.084e-05,0.0,0 STARLINK-4760,1 53828U 22114L   24134.18182233 -.00002084  00000-0 -11291-3 0  9991,2 53828  53.2186  51.6078 0001381  96.3055 263.8095 15.08839091 91828,6917.883,95.438,540.704,538.793,0.0
53828.0,STARLINK-4760,PAYLOAD,2024-05-14 04:12:36,15.08847561,0.0001301,53.2175,47.1497,78.7011,281.4128,0.00090316,0.00014118,0.0,0 STARLINK-4760,1 53828U 22114L   24135.17542094  .00014118  00000-0  90316-3 0  9990,2 53828  53.2175  47.1497 0001301  78.7011 281.4128 15.08847561 91979,6917.857,95.437,540.622,538.822,0.0
53828.0,STARLINK-4760,PAYLOAD,2024-05-14 10:34:08,15.08842649,0.0005765,53.2187,45.9596,79.6607,280.5035,0.00066545,0.00010321,0.0,0 STARLINK-4760,1 53828U 22114L   24135.44038055  .00010321  00000-0  66545-3 0  9996,2 53828  53.2187  45.9596 0005765  79.6607 280.5035 15.08842649 92012,6917.872,95.437,543.725,535.749,0.0
53828.0,STARLINK-4760,PAYLOAD,2024-05-14 22:00:00,15.08844592,0.0001328,53.2178,43.8212,103.3675,325.3494,-1.524e-05,-5.3e-06,0.0,0 STARLINK-4760,1 53828U 22114L   24135.91667824 -.00000530  00000-0 -15240-4 0  9990,2 53828  53.2178  43.8212 0001328 103.3675 325.3494 15.08844592 92088,6917.866,95.437,540.65,538.813,0.0
53828.0,STARLINK-4760,PAYLOAD,2024-05-15 04:03:23,15.08841605,0.0001225,53.2191,42.6863,89.9263,270.187,2.468e-05,1.05e-06,0.0,0 STARLINK-4760,1 53828U 22114L   24136.16902510  .00000105  00000-0  24680-4 0  9996,2 53828  53.2191  42.6863 0001225  89.9263 270.1870 15.08841605 92122,6917.875,95.437,540.588,538.893,0.0
53828.0,STARLINK-4760,PAYLOAD,2024-05-15 10:24:55,15.08852885,0.000133,53.2201,41.4995,85.4772,274.6372,6.0951e-05,6.83e-06,0.0,0 STARLINK-4760,1 53828U 22114L   24136.43397627  .00000683  00000-0  60951-4 0  9995,2 53828  53.2201  41.4995 0001330  85.4772 274.6372 15.08852885 92162,6917.841,95.437,540.626,538.786,0.0
53828.0,STARLINK-4760,PAYLOAD,2024-05-15 21:32:39,15.08846448,0.0002506,53.219,39.4151,73.5748,286.552,-0.00038052,-6.341e-05,0.0,0 STARLINK-4760,1 53828U 22114L   24136.89767676 -.00006341  00000-0 -38052-3 0  9995,2 53828  53.2190  39.4151 0002506  73.5748 286.5520 15.08846448 92230,6917.861,95.437,541.459,537.992,0.0
53828.0,STARLINK-4760,PAYLOAD,2024-05-16 00:43:24,15.08864829,0.0003127,53.2188,38.8203,73.4169,286.7166,-0.00020365,-3.531e-05,0.0,0 STARLINK-4760,1 53828U 22114L   24137.03014165 -.00003531  00000-0 -20365-3 0  9996,2 53828  53.2188  38.8203 0003127  73.4169 286.7166 15.08864829 92257,6917.804,95.436,541.833,537.506,0.0
53828.0,STARLINK-4760,PAYLOAD,2024-05-16 10:15:42,15.08866038,0.0003528,53.2192,37.0356,74.4815,285.6566,-0.00016325,-2.888e-05,0.0,0 STARLINK-4760,1 53828U 22114L   24137.42757528 -.00002888  00000-0 -16325-3 0  9991,2 53828  53.2192  37.0356 0003528  74.4815 285.6566 15.08866038 92858,6917.801,95.436,542.106,537.225,0.0
53828.0,STARLINK-4760,PAYLOAD,2024-05-17 00:34:11,15.08828477,0.0001235,53.219,34.3603,77.9971,282.116,-1.2421e-05,-4.85e-06,0.0,0 STARLINK-4760,1 53828U 22114L   24138.02374951 -.00000485  00000-0 -12421-4 0  9998,2 53828  53.2190  34.3603 0001235  77.9971 282.1160 15.08828477 92403,6917.916,95.438,540.635,538.926,0.0
53828.0,STARLINK-4760,PAYLOAD,2024-05-17 16:28:03,15.08842929,0.0002162,53.2194,31.3861,71.7583,288.3644,-5.1337e-05,-1.105e-05,0.0,0 STARLINK-4760,1 53828U 22114L   24138.68614599 -.00001105  00000-0 -51337-4 0  9994,2 53828  53.2194  31.3861 0002162  71.7583 288.3644 15.08842929 92505,6917.871,95.437,541.232,538.241,0.0
53828.0,STARLINK-4760,PAYLOAD,2024-05-17 22:49:35,15.08838711,0.0001464,53.2188,30.1945,56.6062,303.507,-3.9083e-05,-9.1e-06,0.0,0 STARLINK-4760,1 53828U 22114L   24138.95111061 -.00000910  00000-0 -39083-4 0  9997,2 53828  53.2188  30.1945 0001464  56.6062 303.5070 15.08838711 93087,6917.884,95.438,540.762,538.737,0.0
53828.0,STARLINK-4760,PAYLOAD,2024-05-18 02:00:22,15.08837044,0.000121,53.219,29.6007,82.6735,277.4395,-4.2683e-05,-9.67e-06,0.0,0 STARLINK-4760,1 53828U 22114L   24139.08358980 -.00000967  00000-0 -42683-4 0  9997,2 53828  53.2190  29.6007 0001210  82.6735 277.4395 15.08837044 92566,6917.889,95.438,540.591,538.917,0.0
53828.0,STARLINK-4760,PAYLOAD,2024-05-18 09:57:17,15.08847925,0.0001223,53.2189,28.1162,86.5037,273.6095,5.4937e-05,5.87e-06,0.0,0 STARLINK-4760,1 53828U 22114L   24139.41478063  .00000587  00000-0  54937-4 0  9990,2 53828  53.2189  28.1162 0001223  86.5037 273.6095 15.08847925 92612,6917.856,95.437,540.567,538.875,0.0
53828.0,STARLINK-4760,PAYLOAD,2024-05-18 21:05:00,15.0882916,0.000165,53.2184,26.0369,87.826,272.2921,8.9181e-05,1.131e-05,0.0,0 STARLINK-4760,1 53828U 22114L   24139.87847561  .00001131  00000-0  89181-4 0  9998,2 53828  53.2184  26.0369 0001650  87.8260 272.2921 15.08829160 92680,6917.914,95.438,540.92,538.637,0.0
